[{"OBJECT_NAME":"QIANFAN-28","OBJECT_ID":"2024-185K","EPOCH":"2026-03-09T23:07:15.953376","MEAN_MOTION":14.28222603,"ECCENTRICITY":0.00077666,"INCLINATION":88.9768,"RA_OF_ASC_NODE":66.7039,"ARG_OF_PERICENTER":21.3295,"MEAN_ANOMALY":338.8222,"EPHEMERIS_TYPE":0,"CLASSIFICATION_TYPE":"U","NORAD_CAT_ID":61561,"ELEMENT_SET_NO":999,"REV_AT_EPOCH":8262,"BSTAR":0.0004308774,"MEAN_MOTION_DOT":1.088e-5,"MEAN_MOTION_DDOT":0},{"OBJECT_NAME":"NOAA 16 DEB","OBJECT_ID":"2000-055G","EPOCH":"2026-03-09T17:54:17.900064","MEAN_MOTION":14.26719887,"ECCENTRICITY":0.00079173,"INCLINATION":98.6368,"RA_OF_ASC_NODE":132.0084,"ARG_OF_PERICENTER":115.4846,"MEAN_ANOMALY":244.7154,"EPHEMERIS_TYPE":0,"CLASSIFICATION_TYPE":"U","NORAD_CAT_ID":41049,"ELEMENT_SET_NO":999,"REV_AT_EPOCH":53150,"BSTAR":0.0015298762,"MEAN_MOTION_DOT":3.661e-5,"MEAN_MOTION_DDOT":0}]
